1 44256U 19029X   20045.91668981  .01199987  00000-0  19626-1 0  9990
2 44256  52.9947  45.1782 0001429  65.6555 176.7125 15.49299809 40384
1 44256U 19029X   20046.25001157  .01257382  00000-0  20237-1 0  9998
2 44256  52.9936  43.5775 0001507  92.7139 210.1488 15.49627094 40445
1 44256U 19029X   20046.58335648  .01208629  00000-0  19287-1 0  9992
2 44256  52.9950  41.9722 0001432 100.4408 263.4597 15.49982218 40497
1 44256U 19029X   20046.91667824  .00703704  00000-0  11277-1 0  9997
2 44256  52.9958  40.3736 0001339  57.4612   7.7553 15.50399633 40549
1 44256U 19029X   20047.25001157  .00514181  00000-0  82186-2 0  9993
2 44256  52.9945  38.7714 0001210  78.5948  48.4159 15.50784798 40595
1 44256U 19029X   20047.50001157 +.00397222 +00000-0 +63848-2 0  9990
2 44256 052.9958 037.5658 0001294 078.5082 005.1249 15.51062208001812
1 44256U 19029X   20047.83334491  .00922754  00000-0  14192-1 0  9997
2 44256  52.9924  35.9623 0001264  77.5959  68.5793 15.51306526 40687
1 44256U 19029X   20048.25001157  .00554023  00000-0  84960-2 0  9995
2 44256  52.9937  33.9571 0001261  82.0602 232.8498 15.51803894 40750
1 44256U 19029X   20048.41667824  .00781509  00000-0  11752-1 0  9991
2 44256  52.9951  33.1519 0001167  84.6446  81.9473 15.51948100 40777
1 44256U 19029X   20048.91667824  .00321485  00000-0  49496-2 0  9996
2 44256  52.9950  30.7443 0001397  57.4419  24.8019 15.52549181 40856
1 44256U 19029X   20049.25001157  .00567827  00000-0  83735-2 0  9991
2 44256  52.9943  29.1357 0001036  84.0001  62.5429 15.52845917 40903
1 44256U 19029X   20049.33334491  .00476475  00000-0  70859-2 0  9991
2 44256  52.9956  28.7325 0001125  77.7130 174.9670 15.52944309 40910
1 44256U 19029X   20049.86358796 +.00451701 +00000-0 +66049-2 0  9994
2 44256 052.9959 026.1682 0001103 083.5994 255.6884 15.53502818001861
1 44256U 19029X   20050.16667824  .00413003  00000-0  59954-2 0  9994
2 44256  52.9947  24.7053 0001282  78.6430 156.8431 15.53843785 41047
1 44256U 19029X   20050.58334491  .01449993  00000-0  19948-1 0  9997
2 44256  52.9923  22.6937 0001245  85.1756 322.7182 15.54088918 41117
1 44256U 19029X   20050.83200293  .00278084  00000-0  40841-2 0  9994
2 44256  52.9948  21.4720 0001123  67.6518 292.4610 15.54014645 41156
1 44256U 19029X   20050.91667824 +.00351466 +00000-0 +50000-2 0  9994
2 44256 052.9951 021.0833 0001275 050.3985 063.8449 15.54621915001785
1 44256U 19029X   20051.25001157  .00162534  00000-0  23401-2 0  9994
2 44256  52.9947  19.4695 0001065  68.1306 112.9010 15.54995929 41219
1 44256U 19029X   20051.50002315  .00826324  00000-0  11013-1 0  9998
2 44256  52.9966  18.2567 0001113  91.0294  50.4442 15.55155271 41258
1 44256U 19029X   20051.58334491 +.02469341 +00000-0 +32139-1 0  9995
2 44256 052.9926 017.8538 0001401 085.1006 163.1765 15.54995843001771
1 44256U 19029X   20051.73182798  .00275617  00000-0  39146-2 0  9998
2 44256  52.9949  17.1162 0001399  71.3603 288.7558 15.54941756 41297
1 44256U 19029X   20051.91667824  .00406751  00000-0  55327-2 0  9990
2 44256  52.9946  16.2421 0001398  56.4986 259.3689 15.55648438 41324
1 44256U 19029X   20052.25002315  .00444262  00000-0  59426-2 0  9999
2 44256  52.9950  14.6248 0001183  80.5344 303.4430 15.55969918 41375
1 44256U 19029X   20052.58334491  .02545755  00000-0  31795-1 0  9997
2 44256  52.9930  13.0066 0001050 108.9289 343.4744 15.56020659 41429
1 44256U 19029X   20052.88793393 +.00279574 +00000-0 +37943-2 0  9993
2 44256 052.9951 011.5112 0001297 105.9183 254.1970 15.56163590040622
1 44256U 19029X   20052.91667824  .00107079  00000-0  14571-2 0  9998
2 44256  52.9962  11.3936 0001443  54.6492 106.5831 15.56757156 41479
1 44256U 19029X   20053.25001157 -.00027598  00000-0 -37603-3 0  9998
2 44256  52.9963   9.7732 0001159  70.4090 160.1465 15.56570014 41520
1 44256U 19029X   20053.58334491  .01005180  00000-0  13051-1 0  9995
2 44256  52.9939   8.1549 0001396  87.3826 212.0029 15.55786271 41581
1 44256U 19029X   20053.91541107 -.00036386 +00000-0 -50666-3 0  9994
2 44256 052.9951 006.5283 0001551 064.7323 295.3847 15.56133443040787
1 44256U 19029X   20053.91667824  .00883704  00000-0  11425-1 0  9999
2 44256  52.9941   6.5423 0001324  67.6346 299.9630 15.55814366 41631
1 44256U 19029X   20054.25001157  .00090334  00000-0  12679-2 0  9990
2 44256  52.9953   4.9249 0001173  72.5499   3.2835 15.56000841 41682
1 44256U 19029X   20054.58334491  .01479855  00000-0  19074-1 0  9991
2 44256  52.9940   3.3071 0000989 101.8278  42.3453 15.55820818 41738
1 44256U 19029X   20054.87874569 -.00030426 +00000-0 -42196-3 0  9999
2 44256 052.9949 001.8568 0001160 075.1667 284.9471 15.56151296040931
1 44256U 19029X   20054.91668981  .01065912  00000-0  13688-1 0  9992
2 44256  52.9949   1.6952 0001268  62.2384 150.3620 15.55931201 41785
1 44256U 19029X   20055.19989767 -.00022310 +00000-0 -30794-3 0  9996
2 44256 052.9950 000.2998 0001381 071.5413 288.5747 15.56090649040982
1 44256U 19029X   20055.25001157  .00056884  00000-0  80027-3 0  9996
2 44256  52.9955   0.0773 0001099  72.4087 208.5399 15.56137597 41844
1 44256U 19029X   20055.58334491  .01744142  00000-0  21995-1 0  9991
2 44256  52.9930 358.4579 0001398 102.8546 246.6135 15.55933272 41890
1 44256U 19029X   20055.90634911 +.00043443 +00000-0 +61250-3 0  9992
2 44256 052.9948 356.8740 0001197 076.4783 283.6361 15.56195995041094
1 44256U 19029X   20055.91667824  .01380658  00000-0  17489-1 0  9998
2 44256  52.9935 356.8443 0001131  86.1112 331.8979 15.56029692 41947
1 44256U 19029X   20056.25001157  .00078743  00000-0  10958-2 0  9990
2 44256  52.9964 355.2257 0001101  77.6337  48.9587 15.56293413 41996
1 44256U 19029X   20056.58334491 +.01437203 +00000-0 +18056-1 0  9993
2 44256 052.9940 353.6076 0001015 083.9645 111.3200 15.56131371042045
1 44256U 19029X   20056.83334491  .00023315  00000-0  33025-3 0  9990
2 44256  52.9957 352.3986 0001411  53.8412 102.9548 15.56397894 42086
1 44256U 19029X   20057.12645785  .00044584  00000-0  62438-3 0  9995
2 44256  52.9949 350.9558 0001301 117.2463 242.8680 15.56365783 42134
1 44256U 19029X   20057.41667824  .00623335  00000-0  80229-2 0  9999
2 44256  52.9957 349.5673 0001106  63.2559 123.9394 15.56383922 42174
1 44256U 19029X   20057.91667824  .00164926  00000-0  22491-2 0  9997
2 44256  52.9950 347.1209 0001066  69.4480  41.0278 15.56459275 42257
1 44256U 19029X   20058.16667824  .00030459  00000-0  42779-3 0  9990
2 44256  52.9951 345.9094 0001239  57.5607  14.5720 15.56472611 42297
1 44256U 19029X   20058.91667824 -.00022624  00000-0 -30751-3 0  9997
2 44256  52.9955 342.2693 0001196  65.3717 251.6999 15.56511202 42413
1 44256U 19029X   20059.25002315  .01104474  00000-0  13940-1 0  9995
2 44256  52.9952 340.6533 0001064  72.2145 313.8354 15.56302779 42469
1 44256U 19029X   20059.58334491  .00083715  00000-0  11560-2 0  9994
2 44256  52.9956 339.0343 0001153  64.3079  30.5460 15.56475663 42511
1 44256U 19029X   20059.83334491 +.00027461 +00000-0 +38593-3 0  9994
2 44256 052.9955 337.8215 0001263 066.6189 349.8903 15.56512537001822
1 44256U 19029X   20059.91667824 -.00021591  00000-0 -29301-3 0  9999
2 44256  52.9953 337.4178 0001292  62.8550 100.8750 15.56520778 42563
1 44256U 19029X   20060.25001157  .01697520  00000-0  21243-1 0  9994
2 44256  52.9944 335.8015 0001110  63.5733 169.0926 15.56226386 42611
1 44256U 19029X   20060.58334491 +.00121715 +00000-0 +16695-2 0  9993
2 44256 052.9948 334.1824 0001227 067.2834 234.2600 15.56478153042678
1 44256U 19029X   20060.85063344 +.00002126 +00000-0 +36264-4 0  9999
2 44256 052.9943 332.8869 0001220 076.4148 283.6998 15.56502047041868
1 44256U 19029X   20060.91667824 -.00021251  00000-0 -28810-3 0  9998
2 44256  52.9949 332.5660 0001295  65.3473 305.0858 15.56537141 42723
1 44256U 19029X   20061.58334491  .00158327  00000-0  21589-2 0  9991
2 44256  52.9951 329.3301 0001186  67.3128  80.9731 15.56487797 42821
1 44256U 19029X   20061.81375118 +.00006724 +00000-0 +99813-4 0  9998
2 44256 052.9944 328.2133 0001087 082.2283 277.8851 15.56532118042011
1 44256U 19029X   20061.91667824 -.00005546  00000-0 -69969-4 0  9999
2 44256  52.9954 327.7137 0001372  64.8058 152.3939 15.56548236 42879
1 44256U 19029X   20062.58334491 +.00163478 +00000-0 +22262-2 0  9994
2 44256 052.9955 324.4777 0001292 067.6221 287.4686 15.56503131001776
1 44256U 19029X   20062.84107048 +.00008995 +00000-0 +13108-3 0  9991
2 44256 052.9945 323.2280 0001034 091.0823 269.0306 15.56552719042174
1 44256U 19029X   20063.58334491 +.00127263 +00000-0 +17412-2 0  9998
2 44256 052.9950 319.6255 0001337 069.2282 132.7181 15.56522621001770
1 44256U 19029X   20063.93258891 +.00006120 +00000-0 +91345-4 0  9993
2 44256 052.9943 317.9322 0001186 076.1173 283.9969 15.56567090042346
1 44256U 19029X   20064.25001157  .00003612  00000-0  56706-4 0  9995
2 44256  52.9952 316.3924 0001469  59.9463 279.9173 15.56576002 43247
1 44256U 19029X   20064.50001157  .00211876  00000-0  28633-2 0  9992
2 44256  52.9956 315.1779 0001359  69.0646 232.5443 15.56525801 43289
1 44256U 19029X   20064.58334491 +.00152638 +00000-0 +20796-2 0  9992
2 44256 052.9956 314.7730 0001337 071.1940 337.6553 15.56532522001773
1 44256U 19029X   20064.91667824 -.00018837  00000-0 -25118-3 0  9996
2 44256  52.9957 313.1570 0000741  26.6155  91.3430 15.56891188 43343
1 44256U 19029X   20065.25001157 -.00002880 +00000-0 -32594-4 0  9993
2 44256 052.9958 311.5391 0000841 020.7960 166.5118 15.56906746001830
1 44256U 19029X   20065.50001157  .00348429  00000-0  45712-2 0  9995
2 44256  52.9959 310.3239 0000624  19.3895 129.9625 15.56831855 43435
1 44256U 19029X   20065.83334491 -.00031662  00000-0 -42716-3 0  9993
2 44256  52.9959 308.7068 0000796  29.7770 188.8885 15.56910538 43486
1 44256U 19029X   20065.91667824 -.00002725 +00000-0 -30479-4 0  9993
2 44256 052.9956 308.3027 0000875 027.2759 298.7326 15.56898700001775
1 44256U 19029X   20066.58334491  .00069149  00000-0  94357-3 0  9993
2 44256  52.9953 305.0649 0000684  34.1362  70.6049 15.56878834 43604
